COSMOS 2588             
1 64095U 25109A   26068.81179522  .00009169  00000+0  32611-3 0  9998
2 64095  72.9704  73.5401 0005019 308.6780  51.3966 15.29122656 44425
STARLINK-34816          
1 65467U 25195K   26068.71928102  .00014967  00000+0  51661-3 0  9990
2 65467  53.1594 258.3708 0001373  34.8226 325.2865 15.30189195 29991
